OBJECT C                
1 57582U 23117C   24261.19612776  .00029831  00000+0  14499-2 0  9996
2 57582  97.4797 332.0934 0009423 340.4341  19.6530 15.18339944 61135
